0 COSMOS 2202
1 22039U 92042F   13282.62861623  .00000028  00000-0  96445-4 0  7971
2 22039 082.5964 324.7829 0007643 022.3638 091.4189 12.62545026978910
0 COSMOS 2202
1 22039U 92042F   13287.46449712  .00000046  00000-0  19834-3 0  7997
2 22039 082.5952 321.7031 0007437 011.7184 110.9633 12.62545328979522
0 COSMOS 2202
1 22039U 92042F   13289.60231885  .00000019  00000-0  45097-4 0  8009
2 22039 082.5949 320.3413 0007361 006.6153 107.9663 12.62545596979797
0 COSMOS 2202
1 22039U 92042F   13292.04640214  .00000018  00000-0  38718-4 0  8013
2 22039 082.5949 318.7841 0007261 000.9356 056.8640 12.62545874980107
0 COSMOS 2202
1 22039U 92042F   13294.10581334  .00000012  00000-0  65413-5 0  8027
2 22039 082.5949 317.4720 0007173 356.1714 057.3216 12.62545699980363
0 COSMOS 2202
1 22039U 92042F   13296.16852575  .00000030  00000-0  10956-3 0  8034
2 22039 082.5947 316.1578 0007109 351.1406 073.0433 12.62545520980628
